IRIDIUM 144             
1 43249U 18030A   25296.64555001  .00000065  00000+0  16152-4 0  9993
2 43249  86.4009  29.2764 0001954  95.5839 264.5580 14.34216124396230
IRIDIUM 149             
1 43250U 18030B   25296.65189207  .00000521  00000+0  17898-3 0  9991
2 43250  86.4010  29.2434 0002011  94.3335 265.8091 14.34218021396252
IRIDIUM 157             
1 43251U 18030C   25296.67092003  .00000123  00000+0  36765-4 0  9994
2 43251  86.4008  29.2833 0002199 100.9617 259.1827 14.34217591396239
IRIDIUM 140             
1 43252U 18030D   25296.55040942  .00000414  00000+0  14074-3 0  9998
2 43252  86.4013  29.3471 0001775  90.1975 269.9425 14.34215118396271
IRIDIUM 145             
1 43253U 18030E   25296.67726226  .00000213  00000+0  68917-4 0  9991
2 43253  86.4010  29.2666 0001754  91.6691 268.4706 14.34216674396221
IRIDIUM 146             
1 43254U 18030F   25296.65823101  .00000252  00000+0  82986-4 0  9995
2 43254  86.4009  29.2875 0001847  94.1927 265.9480 14.34214394396234
IRIDIUM 148             
1 43255U 18030G   25296.55675229 -.00000100  00000+0 -42800-4 0  9996
2 43255  86.4007  29.3693 0001953  99.9568 260.1848 14.34215641396257
IRIDIUM 142             
1 43256U 18030H   25296.66457659  .00000273  00000+0  90304-4 0  9995
2 43256  86.4008  29.2220 0001664  92.6733 267.4653 14.34216821396230
